[{"OBJECT_NAME":"COSMOS 2494 (SKRL-756 2)","OBJECT_ID":"2013-078B","EPOCH":"2026-03-09T22:07:38.657280","MEAN_MOTION":15.04216116,"ECCENTRICITY":0.00160459,"INCLINATION":82.4161,"RA_OF_ASC_NODE":348.0656,"ARG_OF_PERICENTER":176.5861,"MEAN_ANOMALY":183.5478,"EPHEMERIS_TYPE":0,"CLASSIFICATION_TYPE":"U","NORAD_CAT_ID":39491,"ELEMENT_SET_NO":999,"REV_AT_EPOCH":66388,"BSTAR":0.0003906904,"MEAN_MOTION_DOT":5.469e-5,"MEAN_MOTION_DDOT":0},{"OBJECT_NAME":"STARLINK-6362","OBJECT_ID":"2023-099Y","EPOCH":"2026-03-09T12:13:02.574048","MEAN_MOTION":15.0253626,"ECCENTRICITY":0.00019407,"INCLINATION":43.0027,"RA_OF_ASC_NODE":237.4225,"ARG_OF_PERICENTER":274.0485,"MEAN_ANOMALY":86.0135,"EPHEMERIS_TYPE":0,"CLASSIFICATION_TYPE":"U","NORAD_CAT_ID":57350,"ELEMENT_SET_NO":999,"REV_AT_EPOCH":14623,"BSTAR":-0.00020566981,"MEAN_MOTION_DOT":-2.981e-5,"MEAN_MOTION_DDOT":0}]
